[{"OBJECT_NAME":"STARLINK-5744","OBJECT_ID":"2023-020AJ","EPOCH":"2026-03-09T22:00:01.999584","MEAN_MOTION":15.10007874,"ECCENTRICITY":0.00010298,"INCLINATION":42.9995,"RA_OF_ASC_NODE":2.7509,"ARG_OF_PERICENTER":246.9542,"MEAN_ANOMALY":20.5186,"EPHEMERIS_TYPE":0,"CLASSIFICATION_TYPE":"U","NORAD_CAT_ID":55601,"ELEMENT_SET_NO":999,"REV_AT_EPOCH":577,"BSTAR":0.0014078131,"MEAN_MOTION_DOT":0.00023133,"MEAN_MOTION_DDOT":0},{"OBJECT_NAME":"KUIPER-00153","OBJECT_ID":"2025-217M","EPOCH":"2026-03-09T22:00:01.999584","MEAN_MOTION":15.08685712,"ECCENTRICITY":0.00100607,"INCLINATION":51.8801,"RA_OF_ASC_NODE":26.4916,"ARG_OF_PERICENTER":321.9781,"MEAN_ANOMALY":312.405,"EPHEMERIS_TYPE":0,"CLASSIFICATION_TYPE":"U","NORAD_CAT_ID":65773,"ELEMENT_SET_NO":999,"REV_AT_EPOCH":517,"BSTAR":-0.00046487713,"MEAN_MOTION_DOT":-7.667e-5,"MEAN_MOTION_DDOT":0}]
